[
  {
    "name": "ONEWEB-0597",
    "noradId": "54663",
    "line1": "1 54663U 22166X   26200.15584736 -.00000039  00000+0 -12619-3 0  9995",
    "line2": "2 54663  87.9234 237.6246 0001905  94.7909 265.3443 13.21823545175769"
  },
  {
    "name": "ONEWEB-0600",
    "noradId": "54664",
    "line1": "1 54664U 22166Y   26200.13735597  .00000030  00000+0  41418-4 0  9996",
    "line2": "2 54664  87.9234 237.6199 0002018 101.1449 258.9912 13.21826226175730"
  },
  {
    "name": "ONEWEB-0601",
    "noradId": "54665",
    "line1": "1 54665U 22166Z   26200.12893766  .00000034  00000+0  50093-4 0  9992",
    "line2": "2 54665  87.9228 237.6367 0001779  94.4463 265.6875 13.21824817175922"
  },
  {
    "name": "ONEWEB-0602",
    "noradId": "54666",
    "line1": "1 54666U 22166AA  26200.17014432  .00000000  00000+0 -30907-4 0  9999",
    "line2": "2 54666  87.9230 237.6348 0001910 101.9069 258.2280 13.21823613175772"
  },
  {
    "name": "ONEWEB-0603",
    "noradId": "54667",
    "line1": "1 54667U 22166AB  26200.17602830 -.00000106  00000+0 -28824-3 0  9997",
    "line2": "2 54667  87.9236 237.5937 0001951  96.6180 263.5176 13.21824103175702"
  },
  {
    "name": "ONEWEB-0604",
    "noradId": "54668",
    "line1": "1 54668U 22166AC  26200.16425290 -.00000047  00000+0 -14619-3 0  9991",
    "line2": "2 54668  87.9243 237.6121 0002121  96.8765 263.2611 13.21824235175660"
  },
  {
    "name": "ONEWEB-0605",
    "noradId": "54669",
    "line1": "1 54669U 22166AD  26200.15752486 -.00000006  00000+0 -45249-4 0  9990",
    "line2": "2 54669  87.9230 237.6241 0001807  80.4240 279.7098 13.21824317175737"
  },
  {
    "name": "ONEWEB-0606",
    "noradId": "54670",
    "line1": "1 54670U 22166AE  26200.17939380 -.00000073  00000+0 -20709-3 0  9991",
    "line2": "2 54670  87.9233 237.6319 0002176  98.8267 261.3113 13.21825273175793"
  },
  {
    "name": "ONEWEB-0607",
    "noradId": "54671",
    "line1": "1 54671U 22166AF  26200.14576456 -.00000091  00000+0 -25144-3 0  9998",
    "line2": "2 54671  87.9244 237.6128 0001885  96.3127 263.8221 13.21826505175761"
  },
  {
    "name": "ONEWEB-0608",
    "noradId": "54672",
    "line1": "1 54672U 22166AG  26200.15247514  .00000056  00000+0  10424-3 0  9994",
    "line2": "2 54672  87.9242 237.6081 0001625  86.2692 273.8628 13.21823976175777"
  },
  {
    "name": "ONEWEB-0610",
    "noradId": "54673",
    "line1": "1 54673U 22166AH  26200.13230785  .00000020  00000+0  16183-4 0  9995",
    "line2": "2 54673  87.9230 237.6227 0001458  95.5839 264.5461 13.21825666175676"
  },
  {
    "name": "ONEWEB-0611",
    "noradId": "54674",
    "line1": "1 54674U 22166AJ  26200.12555197  .00000062  00000+0  11784-3 0  9999",
    "line2": "2 54674  87.9228 237.6199 0002199  95.3130 264.8255 13.21826374175667"
  },
  {
    "name": "ONEWEB-0612",
    "noradId": "54675",
    "line1": "1 54675U 22166AK  26200.13902596  .00000053  00000+0  96761-4 0  9999",
    "line2": "2 54675  87.9246 237.6172 0001890  93.7010 266.4340 13.21826962175650"
  },
  {
    "name": "ONEWEB-0615",
    "noradId": "54676",
    "line1": "1 54676U 22166AL  26200.11883588  .00000085  00000+0  17423-3 0  9999",
    "line2": "2 54676  87.9234 237.6323 0002245 100.0566 260.0822 13.21824208175666"
  },
  {
    "name": "ONEWEB-0655",
    "noradId": "54677",
    "line1": "1 54677U 22166AM  26200.09528820  .00000019  00000+0  13740-4 0  9998",
    "line2": "2 54677  87.9233 237.6380 0001934 101.4873 258.6478 13.21824314175656"
  },
  {
    "name": "ONEWEB-0659",
    "noradId": "54678",
    "line1": "1 54678U 22166AN  26200.11211336  .00000051  00000+0  91884-4 0  9994",
    "line2": "2 54678  87.9239 237.6349 0001995  92.8198 267.3164 13.21824236175740"
  },
  {
    "name": "ONEWEB-0685",
    "noradId": "54679",
    "line1": "1 54679U 22166AP  26200.11166704  .00000040  00000+0  65999-4 0  9999",
    "line2": "2 54679  87.9232 237.6254 0001703  92.4769 267.6560 13.21849063175632"
  },
  {
    "name": "ONEWEB-0712",
    "noradId": "54680",
    "line1": "1 54680U 22166AQ  26200.05472302  .00000092  00000+0  20638-3 0  9995",
    "line2": "2 54680  87.9081 222.4447 0001922 107.4967 252.6374 13.16596141176258"
  },
  {
    "name": "ONEWEB-0714",
    "noradId": "54681",
    "line1": "1 54681U 22166AR  26200.11716836  .00000065  00000+0  12646-3 0  9996",
    "line2": "2 54681  87.9227 237.6226 0002129 103.5999 256.5372 13.21826356175751"
  },
  {
    "name": "ONEWEB-0532",
    "noradId": "55140",
    "line1": "1 55140U 23004A   26200.00163469  .00000040  00000+0  70871-4 0  9993",
    "line2": "2 55140  87.9148 359.5349 0001907  82.3790 277.7558 13.17649121171777"
  },
  {
    "name": "ONEWEB-0533",
    "noradId": "55141",
    "line1": "1 55141U 23004B   26199.94336011  .00000232  00000+0  60891-3 0  9992",
    "line2": "2 55141  87.8970 344.3565 0001642  97.9973 262.1342 13.12441484172220"
  },
  {
    "name": "ONEWEB-0541",
    "noradId": "55142",
    "line1": "1 55142U 23004C   26199.99806070  .00000119  00000+0  30007-3 0  9995",
    "line2": "2 55142  87.8893  14.7259 0002007  88.7108 271.4250 13.11418460170111"
  },
  {
    "name": "ONEWEB-0543",
    "noradId": "55143",
    "line1": "1 55143U 23004D   26200.10787436 -.00000017  00000+0 -75356-4 0  9992",
    "line2": "2 55143  87.9191 329.1206 0001929 106.8569 253.2775 13.18686154173908"
  },
  {
    "name": "ONEWEB-0544",
    "noradId": "55144",
    "line1": "1 55144U 23004E   26200.10112728 -.00000182  00000+0 -49344-3 0  9999",
    "line2": "2 55144  87.9191 329.1216 0002113 101.5798 258.5571 13.18685368173900"
  },
  {
    "name": "ONEWEB-0560",
    "noradId": "55145",
    "line1": "1 55145U 23004F   26200.09439210  .00000110  00000+0  24520-3 0  9994",
    "line2": "2 55145  87.9193 329.1127 0002137 104.3208 255.8162 13.18684831173918"
  },
  {
    "name": "ONEWEB-0565",
    "noradId": "55146",
    "line1": "1 55146U 23004G   26200.31527608 -.00000089  00000+0 -25759-3 0  9991",
    "line2": "2 55146  87.9181 329.0938 0002284  93.6809 266.4584 13.18685986173935"
  },
  {
    "name": "ONEWEB-0567",
    "noradId": "55147",
    "line1": "1 55147U 23004H   26200.30852290  .00000103  00000+0  22789-3 0  9994",
    "line2": "2 55147  87.9193 329.0820 0002264  97.7626 262.3764 13.18687957173934"
  },
  {
    "name": "ONEWEB-0569",
    "noradId": "55148",
    "line1": "1 55148U 23004J   26200.23126603  .00002755  00000+0  75082-2 0  9997",
    "line2": "2 55148  87.8995 313.8455 0002944 109.7783 250.3664 13.13461178174388"
  },
  {
    "name": "ONEWEB-0570",
    "noradId": "55149",
    "line1": "1 55149U 23004K   26200.30009606 -.00000099  00000+0 -28352-3 0  9999",
    "line2": "2 55149  87.9191 329.0809 0001944  86.8452 273.2902 13.18685972173920"
  },
  {
    "name": "ONEWEB-0571",
    "noradId": "55150",
    "line1": "1 55150U 23004L   26200.06573629  .00000004  00000+0 -22611-4 0  9993",
    "line2": "2 55150  87.9192 329.1273 0003188  97.1581 262.9914 13.18686184173901"
  }
]