OBJECT_NAME,OBJECT_ID,EPOCH,MEAN_MOTION,ECCENTRICITY,INCLINATION,RA_OF_ASC_NODE,ARG_OF_PERICENTER,MEAN_ANOMALY,EPHEMERIS_TYPE,CLASSIFICATION_TYPE,NORAD_CAT_ID,ELEMENT_SET_NO,REV_AT_EPOCH,BSTAR,MEAN_MOTION_DOT,MEAN_MOTION_DDOT
ONEWEB-0597,2022-166X,2026-07-19T03:44:25.211904,13.21823545,.00019057,87.9234,237.6246,94.7909,265.3443,0,U,54663,999,17576,-.12618815E-3,-.39E-6,0
ONEWEB-0600,2022-166Y,2026-07-19T03:17:47.555808,13.21826226,.00020182,87.9234,237.6199,101.1449,258.9912,0,U,54664,999,17573,.41417865E-4,.3E-6,0
ONEWEB-0601,2022-166Z,2026-07-19T03:05:40.213824,13.21824817,.00017796,87.9228,237.6367,94.4463,265.6875,0,U,54665,999,17592,.50092689E-4,.34E-6,0
ONEWEB-0602,2022-166AA,2026-07-19T04:05:00.469248,13.21823613,.00019103,87.9230,237.6348,101.9069,258.2280,0,U,54666,999,17577,-.3090698E-4,0,0
ONEWEB-0603,2022-166AB,2026-07-19T04:13:28.845120,13.21824103,.0001951,87.9236,237.5937,96.6180,263.5176,0,U,54667,999,17570,-.28823844E-3,-.106E-5,0
ONEWEB-0604,2022-166AC,2026-07-19T03:56:31.450560,13.21824235,.00021215,87.9243,237.6121,96.8765,263.2611,0,U,54668,999,17566,-.14618736E-3,-.47E-6,0
ONEWEB-0605,2022-166AD,2026-07-19T03:46:50.147904,13.21824317,.00018071,87.9230,237.6241,80.4240,279.7098,0,U,54669,999,17573,-.45248794E-4,-.6E-7,0
ONEWEB-0606,2022-166AE,2026-07-19T04:18:19.624320,13.21825273,.00021763,87.9233,237.6319,98.8267,261.3113,0,U,54670,999,17579,-.20709E-3,-.73E-6,0
ONEWEB-0607,2022-166AF,2026-07-19T03:29:54.057984,13.21826505,.00018859,87.9244,237.6128,96.3127,263.8221,0,U,54671,999,17576,-.25143673E-3,-.91E-6,0
ONEWEB-0608,2022-166AG,2026-07-19T03:39:33.852096,13.21823976,.00016257,87.9242,237.6081,86.2692,273.8628,0,U,54672,999,17577,.10423599E-3,.56E-6,0
ONEWEB-0610,2022-166AH,2026-07-19T03:10:31.398240,13.21825666,.0001458,87.9230,237.6227,95.5839,264.5461,0,U,54673,999,17567,.16182963E-4,.2E-6,0
ONEWEB-0611,2022-166AJ,2026-07-19T03:00:47.690208,13.21826374,.00021993,87.9228,237.6199,95.3130,264.8255,0,U,54674,999,17566,.11784142E-3,.62E-6,0
ONEWEB-0612,2022-166AK,2026-07-19T03:20:11.842944,13.21826962,.00018907,87.9246,237.6172,93.7010,266.4340,0,U,54675,999,17565,.96761406E-4,.53E-6,0
ONEWEB-0615,2022-166AL,2026-07-19T02:51:07.420032,13.21824208,.0002245,87.9234,237.6323,100.0566,260.0822,0,U,54676,999,17566,.174234E-3,.85E-6,0
ONEWEB-0655,2022-166AM,2026-07-19T02:17:12.900480,13.21824314,.00019346,87.9233,237.6380,101.4873,258.6478,0,U,54677,999,17565,.13739991E-4,.19E-6,0
ONEWEB-0659,2022-166AN,2026-07-19T02:41:26.594304,13.21824236,.00019952,87.9239,237.6349,92.8198,267.3164,0,U,54678,999,17574,.91884027E-4,.51E-6,0
ONEWEB-0685,2022-166AP,2026-07-19T02:40:48.032256,13.21849063,.00017039,87.9232,237.6254,92.4769,267.6560,0,U,54679,999,17563,.65999474E-4,.4E-6,0
ONEWEB-0712,2022-166AQ,2026-07-19T01:18:48.068928,13.16596141,.0001922,87.9081,222.4447,107.4967,252.6374,0,U,54680,999,17625,.20637718E-3,.92E-6,0
ONEWEB-0714,2022-166AR,2026-07-19T02:48:43.346304,13.21826356,.00021297,87.9227,237.6226,103.5999,256.5372,0,U,54681,999,17575,.1264575E-3,.65E-6,0
ONEWEB-0532,2023-004A,2026-07-19T00:02:21.237216,13.17649121,.0001907,87.9148,359.5349,82.3790,277.7558,0,U,55140,999,17177,.70871151E-4,.4E-6,0
ONEWEB-0533,2023-004B,2026-07-18T22:38:26.313504,13.12441484,.00016426,87.8970,344.3565,97.9973,262.1342,0,U,55141,999,17222,.60890691E-3,.232E-5,0
ONEWEB-0541,2023-004C,2026-07-18T23:57:12.444480,13.11418460,.00020076,87.8893,14.7259,88.7108,271.4250,0,U,55142,999,17011,.30006999E-3,.119E-5,0
ONEWEB-0543,2023-004D,2026-07-19T02:35:20.344704,13.18686154,.00019295,87.9191,329.1206,106.8569,253.2775,0,U,55143,999,17390,-.7535632E-4,-.17E-6,0
ONEWEB-0544,2023-004E,2026-07-19T02:25:37.396992,13.18685368,.00021139,87.9191,329.1216,101.5798,258.5571,0,U,55144,999,17390,-.4934421E-3,-.182E-5,0
ONEWEB-0560,2023-004F,2026-07-19T02:15:55.477440,13.18684831,.00021372,87.9193,329.1127,104.3208,255.8162,0,U,55145,999,17391,.24520261E-3,.11E-5,0
ONEWEB-0565,2023-004G,2026-07-19T07:33:59.853312,13.18685986,.00022849,87.9181,329.0938,93.6809,266.4584,0,U,55146,999,17393,-.25758661E-3,-.89E-6,0
ONEWEB-0567,2023-004H,2026-07-19T07:24:16.378560,13.18687957,.00022643,87.9193,329.0820,97.7626,262.3764,0,U,55147,999,17393,.22788766E-3,.103E-5,0
ONEWEB-0569,2023-004J,2026-07-19T05:33:01.384992,13.13461178,.0002944,87.8995,313.8455,109.7783,250.3664,0,U,55148,999,17438,.75082036E-2,.2755E-4,0
ONEWEB-0570,2023-004K,2026-07-19T07:12:08.299584,13.18685972,.00019445,87.9191,329.0809,86.8452,273.2902,0,U,55149,999,17392,-.28351747E-3,-.99E-6,0
ONEWEB-0571,2023-004L,2026-07-19T01:34:39.615456,13.18686184,.00031887,87.9192,329.1273,97.1581,262.9914,0,U,55150,999,17390,-.22611338E-4,.4E-7,0
